IRIDIUM 135             
1 43070U 17083A   26156.84906352  .00000045  00000+0  91765-5 0  9991
2 43070  86.3963 326.7578 0002197  90.2716 269.8731 14.34218253442529
IRIDIUM 138             
1 43071U 17083B   26156.45582414  .00000121  00000+0  36068-4 0  9997
2 43071  86.3968 326.6153 0002417  88.8838 271.2635 14.34216574442452
IRIDIUM 116             
1 43072U 17083C   26156.84271740  .00000050  00000+0  10915-4 0  9992
2 43072  86.3957 326.7458 0001876  92.9382 267.2028 14.34218534442547
IRIDIUM 130             
1 43073U 17083D   26156.46216553  .00000670  00000+0  23229-3 0  9991
2 43073  86.3962 327.1795 0002017  87.6740 272.4687 14.34218631442435
IRIDIUM 151             
1 43074U 17083E   26156.85540686  .00000101  00000+0  29055-4 0  9995
2 43074  86.3956 326.7979 0002097  90.7639 269.3797 14.34217401442518
IRIDIUM 134             
1 43075U 17083F   26156.47485165  .00000090  00000+0  25242-4 0  9995
2 43075  86.3961 326.9653 0002093  88.4812 271.6624 14.34218262442420
IRIDIUM 137             
1 43076U 17083G   26156.83637807  .00000097  00000+0  27595-4 0  9998
2 43076  86.3964 326.9066 0001899 101.5125 258.6284 14.34217653442542
IRIDIUM 141             
1 43077U 17083H   26156.83003679 -.00000044  00000+0 -22785-4 0  9993
2 43077  86.3953 326.7405 0002080  90.4468 269.6966 14.34217136442540
IRIDIUM 153             
1 43078U 17083J   26156.85198470  .00000039  00000+0  68605-5 0  9994
2 43078  86.3952 295.2110 0002361  89.9713 270.1753 14.34217678443656
IRIDIUM 131             
1 43079U 17083K   26156.46850837 -.00000068  00000+0 -31234-4 0  9995
2 43079  86.3957 327.0769 0002055  91.8386 268.3046 14.34217452442422
IRIDIUM 144             
1 43249U 18030A   26156.85832574  .00000122  00000+0  36597-4 0  9994
2 43249  86.3950 295.1383 0002026  96.8143 263.3283 14.34217688428518
IRIDIUM 149             
1 43250U 18030B   26156.86466971  .00000040  00000+0  73924-5 0  9996
2 43250  86.3950 295.1025 0002261  93.0057 267.1397 14.34217622428535
IRIDIUM 157             
1 43251U 18030C   26156.81392853  .00000009  00000+0 -39601-5 0  9999
2 43251  86.3947 295.1768 0002074  93.2044 266.9389 14.34217465428506
IRIDIUM 140             
1 43252U 18030D   26156.83295632  .00000038  00000+0  65666-5 0  9990
2 43252  86.3951 295.1812 0002154  92.1364 268.0078 14.34217655428569
IRIDIUM 145             
1 43253U 18030E   26156.82026971  .00000085  00000+0  23133-4 0  9992
2 43253  86.3952 295.1590 0001849  95.9800 264.1607 14.34217357428496
IRIDIUM 146             
1 43254U 18030F   26156.80124307  .00000007  00000+0 -47163-5 0  9998
2 43254  86.3947 295.1793 0001955  94.3296 265.8123 14.34217450428503
IRIDIUM 148             
1 43255U 18030G   26156.83929795  .00000001  00000+0 -67242-5 0  9990
2 43255  86.3948 295.2062 0002063  96.8896 263.2534 14.34217578428542
IRIDIUM 142             
1 43256U 18030H   26156.80758549  .00000035  00000+0  52645-5 0  9992
2 43256  86.3946 295.1085 0002005  94.6601 265.4824 14.34217525428505
IRIDIUM 150             
1 43257U 18030J   26156.84564176  .00000034  00000+0  51026-5 0  9999
2 43257  86.3952 295.2087 0002153  91.7331 268.4111 14.34217562428534
IRIDIUM 143             
1 43258U 18030K   26156.82661347  .00000013  00000+0 -25092-5 0  9998
2 43258  86.3950 295.3090 0001969  93.9979 266.1442 14.34217454428468
IRIDIUM 161             
1 43478U 18047C   26156.86806169  .00000363  00000+0  10183-3 0  9997
2 43478  86.4479  93.2035 0002464  88.8767 271.2716 14.43283723423505
IRIDIUM 152             
1 43479U 18047D   26156.86910073  .00000056  00000+0  12829-4 0  9997
2 43479  86.3954  93.0640 0002372  84.9636 275.1830 14.34217826420860
IRIDIUM 147             
1 43480U 18047E   26156.87544214 -.00000001  00000+0 -75459-5 0  9991
2 43480  86.3955  93.0662 0002034  83.9171 276.2256 14.34216935420869
IRIDIUM 110             
1 43481U 18047F   26156.81201748  .00000048  00000+0  10114-4 0  9993
2 43481  86.3956  93.1843 0002576  88.4403 271.7087 14.34217865420845
IRIDIUM 162             
1 43482U 18047G   26156.86176463  .00000419  00000+0  11870-3 0  9995
2 43482  86.4476  93.0974 0002376  83.5923 276.5548 14.43275475423499
IRIDIUM 160             
1 43569U 18061A   26156.96715819  .00000079  00000+0  21043-4 0  9998
2 43569  86.3968  61.4881 0002264  87.1223 273.0232 14.34218037411765
IRIDIUM 166             
1 43570U 18061B   26156.99252867  .00000024  00000+0  15418-5 0  9992
2 43570  86.3965  61.4280 0002085  83.6645 276.4788 14.34217681411797
IRIDIUM 158             
1 43571U 18061C   26156.82127799  .00000113  00000+0  33251-4 0  9993
2 43571  86.3967  61.5097 0002309  84.2636 275.8823 14.34216947411734
IRIDIUM 165             
1 43572U 18061D   26156.98617843  .00000285  00000+0  94522-4 0  9993
2 43572  86.3969  61.4870 0002086  84.2602 275.8832 14.34221009411780
IRIDIUM 155             
1 43573U 18061E   26156.80859361  .00000048  00000+0  10052-4 0  9991
2 43573  86.3963  61.4305 0002184  82.4557 277.6887 14.34217755411723
IRIDIUM 154             
1 43574U 18061F   26156.44072287  .00000087  00000+0  23920-4 0  9997
2 43574  86.3969  61.7178 0002046  86.6220 273.5210 14.34217516411721
